ONEWEB-0255             
1 48973U 21060G   25320.78466854  .00000114  00000+0  26371-3 0  9997
2 48973  87.9009 271.0845 0002129  79.9868 280.1503 13.16593373211716
ONEWEB-0256             
1 48974U 21060H   25320.81078772  .00000074  00000+0  16068-3 0  9997
2 48974  87.9005 271.0891 0001801  81.9121 278.2214 13.16592445211687
ONEWEB-0257             
1 48975U 21060J   25320.61525648  .00000110  00000+0  25335-3 0  9993
2 48975  87.9014 271.1037 0002027  83.3796 276.7566 13.16592591211614
ONEWEB-0258             
1 48976U 21060K   25320.61684261  .00000006  00000+0 -19234-4 0  9998
2 48976  87.9003 271.1204 0001964  77.9079 282.2272 13.16592934211629
ONEWEB-0259             
1 48977U 21060L   25320.38251511  .00000055  00000+0  10952-3 0  9991
2 48977  87.9015 271.1591 0002077  80.4463 279.6902 13.16592425211629
ONEWEB-0260             
1 48978U 21060M   25320.60179832 -.00000005  00000+0 -45904-4 0  9995
2 48978  87.9003 271.1321 0001683  92.4054 267.7270 13.16596584211636
ONEWEB-0261             
1 48979U 21060N   25320.57173597  .00000088  00000+0  19737-3 0  9997
2 48979  87.9006 271.1400 0002255  86.9599 273.1790 13.16596014211687
ONEWEB-0262             
1 48980U 21060P   25320.77991924  .00000114  00000+0  26446-3 0  9998
2 48980  87.9014 271.0693 0002138  74.5111 285.6256 13.16593119211671
ONEWEB-0263             
1 48981U 21060Q   25320.58359718 -.00000020  00000+0 -86930-4 0  9990
2 48981  87.9007 271.1245 0002290  84.2396 275.8996 13.16593178211611
ONEWEB-0264             
1 48982U 21060R   25320.62082058  .00000017  00000+0  11488-4 0  9996
2 48982  87.9003 271.1216 0001953  87.3112 272.8242 13.16595330211625
ONEWEB-0266             
1 48984U 21060T   25320.41418937  .00000083  00000+0  18451-3 0  9993
2 48984  87.9015 271.1460 0001932  74.2253 285.9091 13.16593359211580
ONEWEB-0267             
1 48985U 21060U   25320.57727835  .00000037  00000+0  63756-4 0  9999
2 48985  87.9012 271.1137 0002089  84.8318 275.3052 13.16594556211616
ONEWEB-0268             
1 48986U 21060V   25320.62159829  .00000106  00000+0  24291-3 0  9995
2 48986  87.9014 271.1126 0001876  81.7669 278.3675 13.16592938211880
ONEWEB-0269             
1 48987U 21060W   25320.83059832  .00000030  00000+0  45120-4 0  9993
2 48987  87.9002 271.0953 0001717  82.2608 277.8718 13.16593866211689
ONEWEB-0270             
1 48988U 21060X   25320.62002455  .00000037  00000+0  61937-4 0  9991
2 48988  87.9014 271.1147 0002324  79.6451 280.4942 13.16593809211697
ONEWEB-0271             
1 48989U 21060Y   25320.60734684  .00000076  00000+0  16556-3 0  9995
2 48989  87.9024 271.1041 0002122  84.5098 275.6275 13.16592957211698
ONEWEB-0272             
1 48990U 21060Z   25320.62950753  .00000087  00000+0  19403-3 0  9992
2 48990  87.9004 271.1194 0001990  87.1068 273.0291 13.16593206211648
