[{"OBJECT_NAME":"ONEWEB-0255","OBJECT_ID":"2021-060G","EPOCH":"2025-11-16T18:49:55.361856","MEAN_MOTION":13.16593373,"ECCENTRICITY":0.0002129,"INCLINATION":87.9009,"RA_OF_ASC_NODE":271.0845,"ARG_OF_PERICENTER":79.9868,"MEAN_ANOMALY":280.1503,"EPHEMERIS_TYPE":0,"CLASSIFICATION_TYPE":"U","NORAD_CAT_ID":48973,"ELEMENT_SET_NO":999,"REV_AT_EPOCH":21171,"BSTAR":0.00026371,"MEAN_MOTION_DOT":1.14e-6,"MEAN_MOTION_DDOT":0},{"OBJECT_NAME":"ONEWEB-0256","OBJECT_ID":"2021-060H","EPOCH":"2025-11-16T19:27:32.059008","MEAN_MOTION":13.16592445,"ECCENTRICITY":0.0001801,"INCLINATION":87.9005,"RA_OF_ASC_NODE":271.0891,"ARG_OF_PERICENTER":81.9121,"MEAN_ANOMALY":278.2214,"EPHEMERIS_TYPE":0,"CLASSIFICATION_TYPE":"U","NORAD_CAT_ID":48974,"ELEMENT_SET_NO":999,"REV_AT_EPOCH":21168,"BSTAR":0.00016068,"MEAN_MOTION_DOT":7.4e-7,"MEAN_MOTION_DDOT":0},{"OBJECT_NAME":"ONEWEB-0257","OBJECT_ID":"2021-060J","EPOCH":"2025-11-16T14:45:58.159872","MEAN_MOTION":13.16592591,"ECCENTRICITY":0.00020277,"INCLINATION":87.9014,"RA_OF_ASC_NODE":271.1037,"ARG_OF_PERICENTER":83.3796,"MEAN_ANOMALY":276.7566,"EPHEMERIS_TYPE":0,"CLASSIFICATION_TYPE":"U","NORAD_CAT_ID":48975,"ELEMENT_SET_NO":999,"REV_AT_EPOCH":21161,"BSTAR":0.00025334518,"MEAN_MOTION_DOT":1.1e-6,"MEAN_MOTION_DDOT":0},{"OBJECT_NAME":"ONEWEB-0258","OBJECT_ID":"2021-060K","EPOCH":"2025-11-16T14:48:15.201504","MEAN_MOTION":13.16592934,"ECCENTRICITY":0.00019648,"INCLINATION":87.9003,"RA_OF_ASC_NODE":271.1204,"ARG_OF_PERICENTER":77.9079,"MEAN_ANOMALY":282.2272,"EPHEMERIS_TYPE":0,"CLASSIFICATION_TYPE":"U","NORAD_CAT_ID":48976,"ELEMENT_SET_NO":999,"REV_AT_EPOCH":21162,"BSTAR":-1.9234141e-5,"MEAN_MOTION_DOT":6.0e-8,"MEAN_MOTION_DDOT":0},{"OBJECT_NAME":"ONEWEB-0259","OBJECT_ID":"2021-060L","EPOCH":"2025-11-16T09:10:49.305504","MEAN_MOTION":13.16592425,"ECCENTRICITY":0.00020776,"INCLINATION":87.9015,"RA_OF_ASC_NODE":271.1591,"ARG_OF_PERICENTER":80.4463,"MEAN_ANOMALY":279.6902,"EPHEMERIS_TYPE":0,"CLASSIFICATION_TYPE":"U","NORAD_CAT_ID":48977,"ELEMENT_SET_NO":999,"REV_AT_EPOCH":21162,"BSTAR":0.00010952003,"MEAN_MOTION_DOT":5.5e-7,"MEAN_MOTION_DDOT":0},{"OBJECT_NAME":"ONEWEB-0260","OBJECT_ID":"2021-060M","EPOCH":"2025-11-16T14:26:35.374848","MEAN_MOTION":13.16596584,"ECCENTRICITY":0.00016837,"INCLINATION":87.9003,"RA_OF_ASC_NODE":271.1321,"ARG_OF_PERICENTER":92.4054,"MEAN_ANOMALY":267.727,"EPHEMERIS_TYPE":0,"CLASSIFICATION_TYPE":"U","NORAD_CAT_ID":48978,"ELEMENT_SET_NO":999,"REV_AT_EPOCH":21163,"BSTAR":-4.5904428e-5,"MEAN_MOTION_DOT":-5.0e-8,"MEAN_MOTION_DDOT":0},{"OBJECT_NAME":"ONEWEB-0261","OBJECT_ID":"2021-060N","EPOCH":"2025-11-16T13:43:17.987808","MEAN_MOTION":13.16596014,"ECCENTRICITY":0.00022555,"INCLINATION":87.9006,"RA_OF_ASC_NODE":271.14,"ARG_OF_PERICENTER":86.9599,"MEAN_ANOMALY":273.179,"EPHEMERIS_TYPE":0,"CLASSIFICATION_TYPE":"U","NORAD_CAT_ID":48979,"ELEMENT_SET_NO":999,"REV_AT_EPOCH":21168,"BSTAR":0.00019736662,"MEAN_MOTION_DOT":8.8e-7,"MEAN_MOTION_DDOT":0},{"OBJECT_NAME":"ONEWEB-0262","OBJECT_ID":"2021-060P","EPOCH":"2025-11-16T18:43:05.022336","MEAN_MOTION":13.16593119,"ECCENTRICITY":0.0002138,"INCLINATION":87.9014,"RA_OF_ASC_NODE":271.0693,"ARG_OF_PERICENTER":74.5111,"MEAN_ANOMALY":285.6256,"EPHEMERIS_TYPE":0,"CLASSIFICATION_TYPE":"U","NORAD_CAT_ID":48980,"ELEMENT_SET_NO":999,"REV_AT_EPOCH":21167,"BSTAR":0.00026446,"MEAN_MOTION_DOT":1.14e-6,"MEAN_MOTION_DDOT":0},{"OBJECT_NAME":"ONEWEB-0263","OBJECT_ID":"2021-060Q","EPOCH":"2025-11-16T14:00:22.796352","MEAN_MOTION":13.16593178,"ECCENTRICITY":0.000229,"INCLINATION":87.9007,"RA_OF_ASC_NODE":271.1245,"ARG_OF_PERICENTER":84.2396,"MEAN_ANOMALY":275.8996,"EPHEMERIS_TYPE":0,"CLASSIFICATION_TYPE":"U","NORAD_CAT_ID":48981,"ELEMENT_SET_NO":999,"REV_AT_EPOCH":21161,"BSTAR":-8.6930349e-5,"MEAN_MOTION_DOT":-2.0e-7,"MEAN_MOTION_DDOT":0},{"OBJECT_NAME":"ONEWEB-0264","OBJECT_ID":"2021-060R","EPOCH":"2025-11-16T14:53:58.898112","MEAN_MOTION":13.1659533,"ECCENTRICITY":0.00019531,"INCLINATION":87.9003,"RA_OF_ASC_NODE":271.1216,"ARG_OF_PERICENTER":87.3112,"MEAN_ANOMALY":272.8242,"EPHEMERIS_TYPE":0,"CLASSIFICATION_TYPE":"U","NORAD_CAT_ID":48982,"ELEMENT_SET_NO":999,"REV_AT_EPOCH":21162,"BSTAR":1.1487503e-5,"MEAN_MOTION_DOT":1.7e-7,"MEAN_MOTION_DDOT":0},{"OBJECT_NAME":"ONEWEB-0266","OBJECT_ID":"2021-060T","EPOCH":"2025-11-16T09:56:25.961568","MEAN_MOTION":13.16593359,"ECCENTRICITY":0.00019328,"INCLINATION":87.9015,"RA_OF_ASC_NODE":271.146,"ARG_OF_PERICENTER":74.2253,"MEAN_ANOMALY":285.9091,"EPHEMERIS_TYPE":0,"CLASSIFICATION_TYPE":"U","NORAD_CAT_ID":48984,"ELEMENT_SET_NO":999,"REV_AT_EPOCH":21158,"BSTAR":0.00018450978,"MEAN_MOTION_DOT":8.3e-7,"MEAN_MOTION_DDOT":0},{"OBJECT_NAME":"ONEWEB-0267","OBJECT_ID":"2021-060U","EPOCH":"2025-11-16T13:51:16.849440","MEAN_MOTION":13.16594556,"ECCENTRICITY":0.00020899,"INCLINATION":87.9012,"RA_OF_ASC_NODE":271.1137,"ARG_OF_PERICENTER":84.8318,"MEAN_ANOMALY":275.3052,"EPHEMERIS_TYPE":0,"CLASSIFICATION_TYPE":"U","NORAD_CAT_ID":48985,"ELEMENT_SET_NO":999,"REV_AT_EPOCH":21161,"BSTAR":6.3755522e-5,"MEAN_MOTION_DOT":3.7e-7,"MEAN_MOTION_DDOT":0},{"OBJECT_NAME":"ONEWEB-0268","OBJECT_ID":"2021-060V","EPOCH":"2025-11-16T14:55:06.092256","MEAN_MOTION":13.16592938,"ECCENTRICITY":0.00018768,"INCLINATION":87.9014,"RA_OF_ASC_NODE":271.1126,"ARG_OF_PERICENTER":81.7669,"MEAN_ANOMALY":278.3675,"EPHEMERIS_TYPE":0,"CLASSIFICATION_TYPE":"U","NORAD_CAT_ID":48986,"ELEMENT_SET_NO":999,"REV_AT_EPOCH":21188,"BSTAR":0.00024290667,"MEAN_MOTION_DOT":1.06e-6,"MEAN_MOTION_DDOT":0},{"OBJECT_NAME":"ONEWEB-0269","OBJECT_ID":"2021-060W","EPOCH":"2025-11-16T19:56:03.694848","MEAN_MOTION":13.16593866,"ECCENTRICITY":0.0001717,"INCLINATION":87.9002,"RA_OF_ASC_NODE":271.0953,"ARG_OF_PERICENTER":82.2608,"MEAN_ANOMALY":277.8718,"EPHEMERIS_TYPE":0,"CLASSIFICATION_TYPE":"U","NORAD_CAT_ID":48987,"ELEMENT_SET_NO":999,"REV_AT_EPOCH":21168,"BSTAR":4.512e-5,"MEAN_MOTION_DOT":3.0e-7,"MEAN_MOTION_DDOT":0},{"OBJECT_NAME":"ONEWEB-0270","OBJECT_ID":"2021-060X","EPOCH":"2025-11-16T14:52:50.121120","MEAN_MOTION":13.16593809,"ECCENTRICITY":0.00023247,"INCLINATION":87.9014,"RA_OF_ASC_NODE":271.1147,"ARG_OF_PERICENTER":79.6451,"MEAN_ANOMALY":280.4942,"EPHEMERIS_TYPE":0,"CLASSIFICATION_TYPE":"U","NORAD_CAT_ID":48988,"ELEMENT_SET_NO":999,"REV_AT_EPOCH":21169,"BSTAR":6.1936998e-5,"MEAN_MOTION_DOT":3.7e-7,"MEAN_MOTION_DDOT":0},{"OBJECT_NAME":"ONEWEB-0271","OBJECT_ID":"2021-060Y","EPOCH":"2025-11-16T14:34:34.766976","MEAN_MOTION":13.16592957,"ECCENTRICITY":0.00021224,"INCLINATION":87.9024,"RA_OF_ASC_NODE":271.1041,"ARG_OF_PERICENTER":84.5098,"MEAN_ANOMALY":275.6275,"EPHEMERIS_TYPE":0,"CLASSIFICATION_TYPE":"U","NORAD_CAT_ID":48989,"ELEMENT_SET_NO":999,"REV_AT_EPOCH":21169,"BSTAR":0.00016556347,"MEAN_MOTION_DOT":7.6e-7,"MEAN_MOTION_DDOT":0},{"OBJECT_NAME":"ONEWEB-0272","OBJECT_ID":"2021-060Z","EPOCH":"2025-11-16T15:06:29.450592","MEAN_MOTION":13.16593206,"ECCENTRICITY":0.000199,"INCLINATION":87.9004,"RA_OF_ASC_NODE":271.1194,"ARG_OF_PERICENTER":87.1068,"MEAN_ANOMALY":273.0291,"EPHEMERIS_TYPE":0,"CLASSIFICATION_TYPE":"U","NORAD_CAT_ID":48990,"ELEMENT_SET_NO":999,"REV_AT_EPOCH":21164,"BSTAR":0.00019403,"MEAN_MOTION_DOT":8.7e-7,"MEAN_MOTION_DDOT":0}]
